StoreName,StoreType,StoreOpeningDate,Address,City,State,Country,Region,Manager Name
The Polished Boutique,MBO,2023-11-24,551 Kristina Mountain Apt. 850 East Michelefort  NY 75408,Markfurt,Massachusetts,Sudan,South,Jeremy
The Whimsy Marketplace,Outlet Stores,1998-08-29,980 Jennifer Corners Suite 279 South Karenmouth  PA 37913,Shawnfurt,Maine,Qatar,East,Nancy
The Chic Haven,SMB,2014-06-29,Unit 2980 Box 4324 DPO AE 33091,East Jessica,Ohio,Guam,North,Laura
The Polished Emporium,SMB,1985-01-17,4822 Hill Keys Sharonburgh  WA 42559,New Patricia,Minnesota,Slovakia (Slovak Republic),East,Julia
The Dapper Hub,MBO,2011-01-06,8615 Seth Road Suite 534 Mitchellberg  NY 03746,Cameronfurt,Minnesota,Tonga,North,Larry
The Polished Nook,SMB,1988-10-04,7068 Martha Locks Suite 275 Frybury  IN 04834,Christinaburgh,Utah,Mexico,South,Jennifer
The Shimmer Corner,Exclusive,1983-12-21,7312 Ellison Burgs Anaport  GA 44561,Cantuberg,New Hampshire,Lithuania,North,Leslie
The Timeless Shop,SMB,1983-04-21,7720 Francisco Station Melissafurt  GU 99043,Lake Maryview,Utah,Gabon,West,Margaret
The Elegant Quest,SMB,2003-07-24,1661 Gomez Manor Suite 934 Victoriaberg  AK 52361,Stevenland,Kansas,Peru,South,Patricia
The Modern Creations,SMB,1981-08-17,43340 Palmer Lane Garymouth  MA 88153,Riosshire,Missouri,Cambodia,North,Kelli
The Modern Reflections,Exclusive,2016-07-23,Unit 9164 Box 5477 DPO AP 52017,Christopherport,New Mexico,Guyana,South,Linda
The Chic Sanctuary,Outlet Stores,1971-03-21,25658 Decker Tunnel Suite 146 South Amytown  CO 28540,Port James,California,Bouvet Island (Bouvetoya),East,Shawn
The Modern Shoppe,SMB,2008-06-12,7201 Stevens Rapid Velasquezview  AR 64343,East Adam,Hawaii,Algeria,North,Jennifer
The Artisan Reflections,SMB,1989-03-25,77814 Christian Avenue Kimberlyberg  SD 82087,Wendyport,Nevada,Yemen,East,Joshua
The Urban Loft,Outlet Stores,1987-01-17,0269 Edwin Tunnel Lake Joe  UT 62007,North Gabrielmouth,Rhode Island,Mali,West,Michael
The Urban Nook,MBO,2006-01-01,148 Kayla Hollow West Michael  DE 70297,Devonchester,North Carolina,Jersey,West,Denise
The Trendy Oasis,Exclusive,2015-12-18,012 Wells Harbors Suite 516 Jeremystad  GA 81306,Larrybury,Missouri,Singapore,North,Michael
The Enchanted Vault,Outlet Stores,1998-05-18,7642 Jordan Summit Danieltown  ND 64110,Sydneyville,Louisiana,Samoa,West,Brian
The Classy Sanctuary,MBO,1989-07-10,61272 Mark Brook New Angelahaven  KY 54872,Thomasville,Colorado,Gabon,North,Stephen
The Stylish Haven,SMB,2000-03-02,3466 Peters Glen Apt. 228 North Regina  VA 97592,Alanbury,Michigan,Bulgaria,East,Vicki
The Cozy Boutique,MBO,1985-08-21,823 Justin Mountain West Michaelshire  AR 65472,North Davidbury,North Dakota,Zambia,East,Tony
The Majestic Hub,Exclusive,2013-09-23,36153 Osborn Island Deborahport  AR 84542,Moodyborough,New Jersey,Korea,East,Loretta
The Radiant Shoppe,Exclusive,1980-11-26,201 Rachel Wall North Michellefurt  NC 69468,Skinnerhaven,Oklahoma,Belize,West,Joseph
The Chic Marketplace,Exclusive,2008-04-01,30905 Robert Gateway Apt. 895 Perrymouth  NY 20227,North Kevin,Tennessee,Cuba,East,Megan
The Artisan Treasures,SMB,1990-08-21,USNS Schwartz FPO AE 49229,Roychester,Pennsylvania,Lao People's Democratic Republic,North,Ashley
The Blissful Sanctuary,Outlet Stores,2001-01-19,60756 Grimes Shores North Christophermouth  WI 07265,Lake Catherineborough,Maryland,Grenada,West,Sherri
The Vintage Haven,SMB,2010-01-21,364 Jacob Neck New Anthony  NE 24122,Port Traci,Kansas,Wallis and Futuna,North,Jeffrey
The Rustic Hub,Outlet Stores,2016-12-13,PSC 4644  Box 2046 APO AE 31516,New Christine,Hawaii,Namibia,North,Nathan
The Majestic Treasures,Exclusive,2004-01-02,9643 Williams Lake West Josephburgh  NH 74189,South Ryan,Vermont,Guyana,South,John
The Timeless Marketplace,Outlet Stores,1990-12-11,679 Frederick Cliff Suite 765 Port Shaun  PW 34141,New Nathan,Massachusetts,Saint Helena,North,Robert
The Purely Reflections,SMB,1975-10-12,1970 Nicole Route Jorgeborough  GU 27833,North Dillon,Arizona,Tokelau,South,Brenda
The Polished Sanctuary,SMB,1989-12-10,99280 Arthur Causeway Apt. 193 Davisland  RI 44464,New Jonathanton,Missouri,Zimbabwe,East,Kevin
The Artisan Finds,MBO,2013-05-08,901 Russo Springs Apt. 817 Andreashire  AL 05566,Nelsonhaven,North Carolina,South Africa,East,Teresa
The Urban Quest,MBO,1981-04-04,98878 Ward Garden Apt. 589 Davidbury  MS 25903,South Barry,Mississippi,Burundi,South,Dale
The Blissful Enclave,SMB,1973-12-15,086 Brian Ranch Lake Christopherhaven  AL 56924,Victormouth,Iowa,Cayman Islands,East,Stephen
The Enchanted Finds,SMB,1981-07-22,855 Melton Locks Apt. 969 Bakerton  AS 19864,West Amber,Georgia,Paraguay,North,Debra
The Artisan Shop,Exclusive,1972-07-03,884 Colleen Junction Melindaborough  AZ 27102,Thompsonfort,Utah,Togo,South,Suzanne
The Cozy Quest,Outlet Stores,1978-12-30,98130 David Land Apt. 708 New Brittanyfurt  GU 64841,Catherinechester,Virginia,Italy,North,William
The Majestic Marketplace,Outlet Stores,1997-08-03,8903 Shaw Ferry Apt. 400 Lake Thomasbury  IL 38778,Lake Heather,South Dakota,Cook Islands,North,Kevin
The Enchanted Treasures,Exclusive,2001-11-07,806 Katie Gateway Robinsonhaven  IN 41283,Wardmouth,Alaska,Central African Republic,North,Jonathan
The Modern Quest,Exclusive,2005-09-28,305 Wright Loaf Suite 076 West Carlosberg  ID 36518,Fosterstad,Mississippi,Turkey,East,Randy
The Enchanted Emporium,Exclusive,2020-09-10,79235 Cynthia Ferry Apt. 165 New Brittanyfurt  LA 99557,Murphystad,New Jersey,Maldives,North,Adriana
The Classy Deals,SMB,1982-11-17,17246 Michael Bypass Morganfurt  MD 24028,South Sharon,Montana,Northern Mariana Islands,West,Jerry
The Majestic Elegance,Outlet Stores,2008-06-21,65803 Miller Greens Mooremouth  MN 76692,Waltersland,Massachusetts,Australia,West,Michael
The Cozy Quest,Outlet Stores,1981-09-21,0864 Michael River West Jordanshire  NH 95831,Walkerfort,Minnesota,Chad,West,Douglas
The Trendy Elegance,MBO,2014-07-23,USCGC Knapp FPO AP 37427,South Amyview,Texas,French Guiana,North,James
The Harmony Loft,SMB,2017-04-11,7217 Davis Ridge Suite 675 East Markview  AZ 99623,West Wayne,Connecticut,Congo,West,Eric
The Harmony Shoppe,Outlet Stores,1992-07-26,512 Christine Crossing Suite 592 North Jonathanland  KY 23558,Williamfurt,Oklahoma,Belgium,South,Caroline
The Vintage Vault,Exclusive,1976-05-11,931 Collins Gardens Suite 616 Brownmouth  NM 29877,Shaneville,North Carolina,Belgium,East,Crystal
The Classy Loft,SMB,2019-12-31,4182 Decker Isle Sanchezmouth  DE 83044,Georgeland,Florida,French Southern Territories,East,Ryan
The Enchanted Elegance,Exclusive,2017-12-30,8465 Heather Knolls Antoniotown  DE 89020,Port Karen,Pennsylvania,Pitcairn Islands,West,Jose
The Trendy Haven,Outlet Stores,2014-11-25,89746 Escobar Harbor Apt. 275 Peterstad  FL 71753,Port Michael,Kentucky,Micronesia,West,Julie
The Vintage Elegance,Exclusive,2015-09-08,05522 Connie Prairie North Elizabeth  CA 50109,Tammyview,Alabama,Saint Kitts and Nevis,West,Lindsay
The Eclectic Vault,MBO,1992-05-28,6529 Scott Shores Apt. 130 Lake Brian  NJ 94080,Port Gregory,New Mexico,Romania,West,Dawn
The Vintage Boutique,Outlet Stores,2023-11-22,9181 Rhonda Canyon Suite 584 South Kyle  KY 25853,Henrystad,Texas,Cambodia,North,Jenna
The Rustic Quest,Outlet Stores,2015-02-04,21585 Stacey Dam North Shannon  NM 44203,North Johnnytown,North Carolina,Guadeloupe,West,Sarah
The Urban Nook,MBO,2014-02-05,994 Kevin Streets Suite 402 West Andrew  AZ 62419,Hardingfort,Washington,China,East,Veronica
The Unique Perfection,SMB,1997-03-24,494 Gregory Lodge Carsonport  IL 70471,Michaelfort,Mississippi,Panama,North,Mark
The Rustic Enclave,MBO,2003-06-22,32073 Stephanie Center Allisonborough  MN 40706,North Kathyborough,Alaska,Nauru,North,Randy
The Polished Loft,Exclusive,1991-03-21,3410 Cochran Pass South Robert  VA 52863,West Thomas,Oregon,Australia,South,Stephen
The Vintage Vault,Outlet Stores,1987-05-13,60073 Dawn Lock South Valerie  IN 36718,Lake Brandichester,Arizona,Dominica,South,Alexander
The Whimsy Perfection,Outlet Stores,2002-04-13,4727 Smith Mills Suite 024 New Bradleyberg  MP 09064,Laurafurt,Wyoming,Cocos (Keeling) Islands,West,Wendy
The Dapper Finds,SMB,1987-12-10,22169 John Parkways South Clayton  VT 91352,South Philip,Vermont,Bhutan,East,Jonathan
The Artisan Cabinet,Exclusive,1996-03-27,550 Walter Camp Apt. 775 New Ambermouth  TX 87071,Mariebury,Texas,Iraq,North,Jonathan
The Classy Creations,SMB,1972-01-26,USNV Holder FPO AP 89623,Hannahton,Rhode Island,French Polynesia,West,Brenda
The Whimsy Reflections,MBO,2011-06-09,69776 Charles Fields Seanville  NJ 85315,Lake Brianna,Ohio,Lebanon,South,Rachael
The Artisan Reflections,SMB,2020-09-07,8046 Mckay Street Lake Ashleystad  FM 26234,Evelynburgh,Kansas,India,East,Jacob
The Rustic Treasures,SMB,2019-02-23,7498 Brown Walk Apt. 907 Charleshaven  VT 19517,Padillastad,Massachusetts,Martinique,North,Michelle
The Whimsy Haven,SMB,2025-06-01,3486 Hardin Streets Suite 812 North Theresaville  AZ 68638,Tiffanyton,Virginia,Bolivia,West,Kelsey
The Dapper Treasures,Outlet Stores,2022-08-21,261 Keller Inlet Apt. 423 Paulachester  NM 92815,Debrafurt,Maryland,Korea,West,Sarah
The Polished Emporium,MBO,2001-05-28,73726 Ronald Shoal Lake Jennifer  FM 22890,Taylorport,Kansas,Greenland,South,Karen
The Artisan Reflections,Outlet Stores,2013-12-24,485 Cunningham Circles South Marie  VI 65017,Lake Erica,Alabama,Tanzania,South,Duane
The Classy Perfection,SMB,1999-01-02,04875 Leslie Islands Apt. 046 Harrisbury  DE 98187,Jameschester,Nebraska,Mozambique,East,Paul
The Golden Reflections,Outlet Stores,2002-12-07,297 Debra Road Suite 497 South Brandon  SD 78852,Baileystad,Connecticut,Burundi,North,Becky
The Rustic Boutique,Exclusive,1999-02-19,PSC 1642  Box 2234 APO AE 02841,Kaitlynside,Utah,Anguilla,South,Christine
The Artisan Haven,Exclusive,1995-07-17,5613 Grant Pike Apt. 276 Lake Juanstad  VA 86179,Jamesfort,Florida,Turkey,North,Daniel
The Elegant Shoppe,SMB,2003-09-03,79684 Kaylee Mountains West Brendatown  IA 13949,Nicholasport,Florida,Saint Kitts and Nevis,South,Emily
The Dapper Avenue,MBO,2015-05-04,43981 Johnson Harbors Apt. 490 New Kim  AK 54630,Jacobhaven,Washington,Norfolk Island,West,Joseph
The Harmony Perfection,Outlet Stores,2015-09-02,07611 Jacqueline Meadow Ramirezshire  CO 83446,Terrencetown,Kentucky,Somalia,South,Michael
The Majestic Vault,MBO,1980-10-07,95303 Marshall Views Kimmouth  CT 94277,Port James,South Dakota,El Salvador,North,Janice
The Harmony Creations,Exclusive,1999-06-24,68415 Andrea Green Apt. 082 New Jessicafort  CA 31568,Donaldburgh,Iowa,Azerbaijan,West,Jay
The Enchanted Treasures,MBO,2012-02-25,88187 Christopher Turnpike Suite 096 East Michael  MI 03978,West Erin,California,American Samoa,West,Susan
The Unique Marketplace,MBO,1974-05-18,PSC 7285  Box 8785 APO AP 53886,Brayfort,Mississippi,Kazakhstan,South,Sarah
The Luxe Vault,Outlet Stores,1975-02-16,Unit 0159 Box 0921 DPO AE 27566,Tinamouth,Tennessee,Antarctica (the territory South of 60 deg S),South,Christopher
The Serene Essentials,MBO,2011-12-25,7526 Tamara Glens West Monicaberg  MD 13369,West Kristopherfort,Texas,Syrian Arab Republic,West,Larry
The Cozy Haven,Exclusive,2016-09-21,57115 Martinez Camp Apt. 665 Port Chad  RI 49872,South Diamond,Colorado,Isle of Man,North,Terry
The Timeless Reflections,MBO,2008-03-26,6853 Case Mountain Apt. 569 Johnsonland  CO 09084,Morenoport,Tennessee,Belize,South,Jason
The Harmony Closet,MBO,1997-09-03,888 Kennedy Wells Brownhaven  AZ 58317,Lake Shaun,Hawaii,Korea,South,Heather
The Artisan Haven,Outlet Stores,1995-11-22,357 Brittany Valley North Michael  HI 12305,Andersonshire,Nevada,Croatia,North,Christopher
The Enchanted Merchant,Exclusive,2003-01-20,76254 Johnson Glens Alexanderstad  ID 59254,Mcguirefort,Ohio,Kyrgyz Republic,South,Linda
The Timeless Reflections,MBO,1995-09-09,10275 Dunn Grove West Amyfurt  IA 78708,Michelleland,Louisiana,Greece,South,Alexa
The Urban Enclave,SMB,2023-06-22,4697 Bolton Springs Apt. 947 Briannaport  WV 05380,East Amanda,Utah,Bermuda,South,Jean
The Cozy Enclave,Exclusive,2014-01-04,278 Miller Haven Suite 633 North John  ID 00575,Port Annburgh,Arkansas,Cape Verde,West,Lawrence
The Timeless Nook,SMB,1987-03-10,39024 Larson Canyon Nicholasstad  PA 86674,Lake Stephen,Kentucky,Albania,South,Zachary
The Eclectic Vault,MBO,2015-08-26,555 Meghan Landing West Harold  IA 21474,Reginaport,Utah,Palestinian Territory,South,Erica
The Blissful Oasis,SMB,2013-03-19,69473 Butler Ford Lake Jimmyberg  GU 87322,North Taraport,Maine,Jamaica,South,Kimberly
The Artisan Marketplace,Exclusive,1971-07-28,36140 Frazier Track Apt. 972 North Michael  CO 30238,Smithview,Delaware,Norfolk Island,North,David
The Harmony Elegance,Outlet Stores,1996-05-11,5348 Cross Center Coreyville  FM 14866,Scottton,Pennsylvania,Saint Vincent and the Grenadines,South,Nancy
The Harmony Haven,Outlet Stores,2004-11-04,36749 Sims Mission Marytown  OH 11375,New Christopher,Maine,Jamaica,North,Edward
The Rustic Merchant,Exclusive,1997-02-07,PSC 5066  Box 5723 APO AP 20470,East Johnton,New York,Guernsey,East,Jasmine
